{
  "type": "FeatureCollection",
  "features": [
    {
      "type": "Feature",
      "properties": {
        "norad_id": 36828,
        "name": "BEIDOU-2 IGSO-1 (C06)",
        "group": "beidou",
        "lat": 52.26863028487007,
        "lon": -83.95930129217027,
        "alt_km": 35862.380554265284,
        "timestamp": "2025-12-06T05:40:09.506446+00:00",
        "meta_object_name": "BEIDOU-2 IGSO-1 (C06)",
        "meta_object_id": "2010-036A",
        "meta_epoch": "2025-12-04T10:48:55.401408",
        "meta_mean_motion": 1.0027836,
        "meta_eccentricity": 0.0051251,
        "meta_inclination": 54.2839,
        "meta_ra_of_asc_node": 164.7233,
        "meta_arg_of_pericenter": 215.778,
        "meta_mean_anomaly": 323.0243,
        "meta_ephemeris_type": 0,
        "meta_classification_type": "U",
        "meta_norad_cat_id": 36828,
        "meta_element_set_no": 999,
        "meta_rev_at_epoch": 5614,
        "meta_bstar": 0,
        "meta_mean_motion_dot": -3.3e-07,
        "meta_mean_motion_ddot": 0,
        "tle_line1": "1 36828U 10036A   25338.45064122 -.00000033  00000+0  00000+0 0  9997",
        "tle_line2": "2 36828  54.2839 164.7233 0051251 215.7780 323.0243  1.00278360 56140"
      },
      "geometry": {
        "type": "Point",
        "coordinates": [
          -83.95930129217027,
          52.26863028487007
        ]
      }
    },
    {
      "type": "Feature",
      "properties": {
        "norad_id": 37210,
        "name": "BEIDOU-2 G4 (C04)",
        "group": "beidou",
        "lat": -2.994694022324418,
        "lon": -39.53283946417114,
        "alt_km": 35764.37785022997,
        "timestamp": "2025-12-06T05:40:09.506475+00:00",
        "meta_object_name": "BEIDOU-2 G4 (C04)",
        "meta_object_id": "2010-057A",
        "meta_epoch": "2025-12-05T05:53:56.141952",
        "meta_mean_motion": 1.00271299,
        "meta_eccentricity": 0.00109588,
        "meta_inclination": 3.1649,
        "meta_ra_of_asc_node": 69.9566,
        "meta_arg_of_pericenter": 189.1211,
        "meta_mean_anomaly": 63.7832,
        "meta_ephemeris_type": 0,
        "meta_classification_type": "U",
        "meta_norad_cat_id": 37210,
        "meta_element_set_no": 999,
        "meta_rev_at_epoch": 5534,
        "meta_bstar": 0,
        "meta_mean_motion_dot": -1.01e-06,
        "meta_mean_motion_ddot": 0,
        "tle_line1": "1 37210U 10057A   25339.24578868 -.00000101  00000+0  00000+0 0  9997",
        "tle_line2": "2 37210   3.1649  69.9566 0010958 189.1211  63.7832  1.00271299 55342"
      },
      "geometry": {
        "type": "Point",
        "coordinates": [
          -39.53283946417114,
          -2.994694022324418
        ]
      }
    },
    {
      "type": "Feature",
      "properties": {
        "norad_id": 37256,
        "name": "BEIDOU-2 IGSO-2 (C07)",
        "group": "beidou",
        "lat": -4.612452296546137,
        "lon": -89.97782379370544,
        "alt_km": 35935.634340256285,
        "timestamp": "2025-12-06T05:40:09.506493+00:00",
        "meta_object_name": "BEIDOU-2 IGSO-2 (C07)",
        "meta_object_id": "2010-068A",
        "meta_epoch": "2025-12-03T17:22:36.030432",
        "meta_mean_motion": 1.0028871,
        "meta_eccentricity": 0.00492335,
        "meta_inclination": 47.9043,
        "meta_ra_of_asc_node": 274.2613,
        "meta_arg_of_pericenter": 216.1442,
        "meta_mean_anomaly": 310.2369,
        "meta_ephemeris_type": 0,
        "meta_classification_type": "U",
        "meta_norad_cat_id": 37256,
        "meta_element_set_no": 999,
        "meta_rev_at_epoch": 5483,
        "meta_bstar": 0,
        "meta_mean_motion_dot": -2.25e-06,
        "meta_mean_motion_ddot": 0,
        "tle_line1": "1 37256U 10068A   25337.72402813 -.00000225  00000+0  00000+0 0  9993",
        "tle_line2": "2 37256  47.9043 274.2613 0049233 216.1442 310.2369  1.00288710 54839"
      },
      "geometry": {
        "type": "Point",
        "coordinates": [
          -89.97782379370544,
          -4.612452296546137
        ]
      }
    },
    {
      "type": "Feature",
      "properties": {
        "norad_id": 37384,
        "name": "BEIDOU-2 IGSO-3 (C08)",
        "group": "beidou",
        "lat": -39.668646447980365,
        "lon": -112.0081416572988,
        "alt_km": 35675.896415757015,
        "timestamp": "2025-12-06T05:40:09.506506+00:00",
        "meta_object_name": "BEIDOU-2 IGSO-3 (C08)",
        "meta_object_id": "2011-013A",
        "meta_epoch": "2025-12-03T14:52:09.520896",
        "meta_mean_motion": 1.00272128,
        "meta_eccentricity": 0.00353922,
        "meta_inclination": 62.1308,
        "meta_ra_of_asc_node": 42.005,
        "meta_arg_of_pericenter": 186.5359,
        "meta_mean_anomaly": 174.9093,
        "meta_ephemeris_type": 0,
        "meta_classification_type": "U",
        "meta_norad_cat_id": 37384,
        "meta_element_set_no": 999,
        "meta_rev_at_epoch": 5370,
        "meta_bstar": 0,
        "meta_mean_motion_dot": -1.99e-06,
        "meta_mean_motion_ddot": 0,
        "tle_line1": "1 37384U 11013A   25337.61955464 -.00000199  00000+0  00000+0 0  9999",
        "tle_line2": "2 37384  62.1308  42.0050 0035392 186.5359 174.9093  1.00272128 53708"
      },
      "geometry": {
        "type": "Point",
        "coordinates": [
          -112.0081416572988,
          -39.668646447980365
        ]
      }
    },
    {
      "type": "Feature",
      "properties": {
        "norad_id": 37763,
        "name": "BEIDOU-2 IGSO-4 (C09)",
        "group": "beidou",
        "lat": 54.3276679575157,
        "lon": -109.3555070040961,
        "alt_km": 36283.805671056834,
        "timestamp": "2025-12-06T05:40:09.506519+00:00",
        "meta_object_name": "BEIDOU-2 IGSO-4 (C09)",
        "meta_object_id": "2011-038A",
        "meta_epoch": "2025-12-01T12:32:09.960864",
        "meta_mean_motion": 1.00284074,
        "meta_eccentricity": 0.01487808,
        "meta_inclination": 54.5808,
        "meta_ra_of_asc_node": 167.4476,
        "meta_arg_of_pericenter": 230.2031,
        "meta_mean_anomaly": 315.0387,
        "meta_ephemeris_type": 0,
        "meta_classification_type": "U",
        "meta_norad_cat_id": 37763,
        "meta_element_set_no": 999,
        "meta_rev_at_epoch": 5266,
        "meta_bstar": 0,
        "meta_mean_motion_dot": 1.01e-06,
        "meta_mean_motion_ddot": 0,
        "tle_line1": "1 37763U 11038A   25335.52233751  .00000101  00000+0  00000+0 0  9995",
        "tle_line2": "2 37763  54.5808 167.4476 0148780 230.2031 315.0387  1.00284074 52664"
      },
      "geometry": {
        "type": "Point",
        "coordinates": [
          -109.3555070040961,
          54.3276679575157
        ]
      }
    },
    {
      "type": "Feature",
      "properties": {
        "norad_id": 37948,
        "name": "BEIDOU-2 IGSO-5 (C10)",
        "group": "beidou",
        "lat": -14.686744688333071,
        "lon": -99.70789342258459,
        "alt_km": 35997.4311554118,
        "timestamp": "2025-12-06T05:40:09.506532+00:00",
        "meta_object_name": "BEIDOU-2 IGSO-5 (C10)",
        "meta_object_id": "2011-073A",
        "meta_epoch": "2025-12-04T19:17:55.815936",
        "meta_mean_motion": 1.00292045,
        "meta_eccentricity": 0.01106348,
        "meta_inclination": 48.036,
        "meta_ra_of_asc_node": 273.956,
        "meta_arg_of_pericenter": 222.1589,
        "meta_mean_anomaly": 319.7219,
        "meta_ephemeris_type": 0,
        "meta_classification_type": "U",
        "meta_norad_cat_id": 37948,
        "meta_element_set_no": 999,
        "meta_rev_at_epoch": 5118,
        "meta_bstar": 0,
        "meta_mean_motion_dot": -1.77e-06,
        "meta_mean_motion_ddot": 0,
        "tle_line1": "1 37948U 11073A   25338.80411824 -.00000177  00000+0  00000+0 0  9996",
        "tle_line2": "2 37948  48.0360 273.9560 0110634 222.1589 319.7219  1.00292045 51180"
      },
      "geometry": {
        "type": "Point",
        "coordinates": [
          -99.70789342258459,
          -14.686744688333071
        ]
      }
    },
    {
      "type": "Feature",
      "properties": {
        "norad_id": 38091,
        "name": "BEIDOU-2 G5 (C05)",
        "group": "beidou",
        "lat": 1.6078688109271047,
        "lon": -141.07206674103284,
        "alt_km": 35773.97488767836,
        "timestamp": "2025-12-06T05:40:09.506544+00:00",
        "meta_object_name": "BEIDOU-2 G5 (C05)",
        "meta_object_id": "2012-008A",
        "meta_epoch": "2025-12-05T01:59:26.111904",
        "meta_mean_motion": 1.00272818,
        "meta_eccentricity": 0.00124323,
        "meta_inclination": 3.089,
        "meta_ra_of_asc_node": 70.7304,
        "meta_arg_of_pericenter": 225.8222,
        "meta_mean_anomaly": 226.162,
        "meta_ephemeris_type": 0,
        "meta_classification_type": "U",
        "meta_norad_cat_id": 38091,
        "meta_element_set_no": 999,
        "meta_rev_at_epoch": 5042,
        "meta_bstar": 0,
        "meta_mean_motion_dot": 6.8e-07,
        "meta_mean_motion_ddot": 0,
        "tle_line1": "1 38091U 12008A   25339.08294111  .00000068  00000+0  00000+0 0  9992",
        "tle_line2": "2 38091   3.0890  70.7304 0012432 225.8222 226.1620  1.00272818 50428"
      },
      "geometry": {
        "type": "Point",
        "coordinates": [
          -141.07206674103284,
          1.6078688109271047
        ]
      }
    }
  ]
}